{
  "type": "FeatureCollection",
  "features": [
    {
      "type": "Feature",
      "properties": {
        "norad_id": 30921,
        "name": "FENGYUN 1C DEB",
        "group": "fengyun-1c-debris",
        "lat": -28.392741922994635,
        "lon": -110.94562756069003,
        "alt_km": 800.2988131869006,
        "timestamp": "2025-12-12T09:49:09.011147+00:00",
        "meta_object_name": "FENGYUN 1C DEB",
        "meta_object_id": "1999-025AZK",
        "meta_epoch": "2025-12-12T04:05:58.394400",
        "meta_mean_motion": 14.32726229,
        "meta_eccentricity": 0.0016862,
        "meta_inclination": 98.8423,
        "meta_ra_of_asc_node": 73.638,
        "meta_arg_of_pericenter": 39.5415,
        "meta_mean_anomaly": 20.5821,
        "meta_ephemeris_type": 0,
        "meta_classification_type": "U",
        "meta_norad_cat_id": 30921,
        "meta_element_set_no": 999,
        "meta_rev_at_epoch": 96816,
        "meta_bstar": 0.0026782,
        "meta_mean_motion_dot": 7.263e-05,
        "meta_mean_motion_ddot": 0,
        "tle_line1": "1 30921U 99025AZK 25346.17081475  .00007263  00000+0  26782-2 0  9997",
        "tle_line2": "2 30921  98.8423  73.6380 0016862  39.5415  20.5821 14.32726229968164"
      },
      "geometry": {
        "type": "Point",
        "coordinates": [
          -110.94562756069003,
          -28.392741922994635
        ]
      }
    },
    {
      "type": "Feature",
      "properties": {
        "norad_id": 30922,
        "name": "FENGYUN 1C DEB",
        "group": "fengyun-1c-debris",
        "lat": 7.324159506800274,
        "lon": -176.61657895663976,
        "alt_km": 840.7864303437527,
        "timestamp": "2025-12-12T09:49:09.011158+00:00",
        "meta_object_name": "FENGYUN 1C DEB",
        "meta_object_id": "1999-025AZL",
        "meta_epoch": "2025-12-12T00:48:13.630176",
        "meta_mean_motion": 14.17456354,
        "meta_eccentricity": 0.0014623,
        "meta_inclination": 98.6403,
        "meta_ra_of_asc_node": 1.8984,
        "meta_arg_of_pericenter": 55.7216,
        "meta_mean_anomaly": 0.8482,
        "meta_ephemeris_type": 0,
        "meta_classification_type": "U",
        "meta_norad_cat_id": 30922,
        "meta_element_set_no": 999,
        "meta_rev_at_epoch": 96554,
        "meta_bstar": 0.00091747,
        "meta_mean_motion_dot": 1.819e-05,
        "meta_mean_motion_ddot": 0,
        "tle_line1": "1 30922U 99025AZL 25346.03349109  .00001819  00000+0  91747-3 0  9999",
        "tle_line2": "2 30922  98.6403   1.8984 0014623  55.7216   0.8482 14.17456354965541"
      },
      "geometry": {
        "type": "Point",
        "coordinates": [
          -176.61657895663976,
          7.324159506800274
        ]
      }
    },
    {
      "type": "Feature",
      "properties": {
        "norad_id": 30925,
        "name": "FENGYUN 1C DEB",
        "group": "fengyun-1c-debris",
        "lat": -80.92717135034079,
        "lon": -140.10958095617966,
        "alt_km": 735.043818199576,
        "timestamp": "2025-12-12T09:49:09.011168+00:00",
        "meta_object_name": "FENGYUN 1C DEB",
        "meta_object_id": "1999-025AZP",
        "meta_epoch": "2025-12-11T07:45:48.086208",
        "meta_mean_motion": 14.43091486,
        "meta_eccentricity": 0.00330821,
        "meta_inclination": 98.8812,
        "meta_ra_of_asc_node": 117.0445,
        "meta_arg_of_pericenter": 241.4994,
        "meta_mean_anomaly": 149.4928,
        "meta_ephemeris_type": 0,
        "meta_classification_type": "U",
        "meta_norad_cat_id": 30925,
        "meta_element_set_no": 999,
        "meta_rev_at_epoch": 97052,
        "meta_bstar": 0.0050847647,
        "meta_mean_motion_dot": 0.00017166,
        "meta_mean_motion_ddot": 0,
        "tle_line1": "1 30925U 99025AZP 25345.32347322  .00017166  00000+0  50848-2 0  9996",
        "tle_line2": "2 30925  98.8812 117.0445 0033082 241.4994 149.4928 14.43091486970528"
      },
      "geometry": {
        "type": "Point",
        "coordinates": [
          -140.10958095617966,
          -80.92717135034079
        ]
      }
    },
    {
      "type": "Feature",
      "properties": {
        "norad_id": 30926,
        "name": "FENGYUN 1C DEB",
        "group": "fengyun-1c-debris",
        "lat": 0.11523329747939466,
        "lon": -72.90655009957902,
        "alt_km": 495.7773779078343,
        "timestamp": "2025-12-12T09:49:09.011178+00:00",
        "meta_object_name": "FENGYUN 1C DEB",
        "meta_object_id": "1999-025AZQ",
        "meta_epoch": "2025-12-11T06:24:28.777536",
        "meta_mean_motion": 14.89322505,
        "meta_eccentricity": 0.01659765,
        "meta_inclination": 98.8019,
        "meta_ra_of_asc_node": 285.8414,
        "meta_arg_of_pericenter": 26.5333,
        "meta_mean_anomaly": 334.4258,
        "meta_ephemeris_type": 0,
        "meta_classification_type": "U",
        "meta_norad_cat_id": 30926,
        "meta_element_set_no": 999,
        "meta_rev_at_epoch": 745,
        "meta_bstar": 0.0010358861,
        "meta_mean_motion_dot": 0.00012673,
        "meta_mean_motion_ddot": 0,
        "tle_line1": "1 30926U 99025AZQ 25345.26699974  .00012673  00000+0  10359-2 0  9994",
        "tle_line2": "2 30926  98.8019 285.8414 0165976  26.5333 334.4258 14.89322505  7459"
      },
      "geometry": {
        "type": "Point",
        "coordinates": [
          -72.90655009957902,
          0.11523329747939466
        ]
      }
    },
    {
      "type": "Feature",
      "properties": {
        "norad_id": 30927,
        "name": "FENGYUN 1C DEB",
        "group": "fengyun-1c-debris",
        "lat": -65.67323084174872,
        "lon": 67.83851691745916,
        "alt_km": 850.0097335451528,
        "timestamp": "2025-12-12T09:49:09.011189+00:00",
        "meta_object_name": "FENGYUN 1C DEB",
        "meta_object_id": "1999-025AZR",
        "meta_epoch": "2025-12-12T03:19:00.568992",
        "meta_mean_motion": 14.08974509,
        "meta_eccentricity": 0.0098379,
        "meta_inclination": 99.1824,
        "meta_ra_of_asc_node": 46.5978,
        "meta_arg_of_pericenter": 7.6267,
        "meta_mean_anomaly": 352.6371,
        "meta_ephemeris_type": 0,
        "meta_classification_type": "U",
        "meta_norad_cat_id": 30927,
        "meta_element_set_no": 999,
        "meta_rev_at_epoch": 95675,
        "meta_bstar": 0.0023255,
        "meta_mean_motion_dot": 4.165e-05,
        "meta_mean_motion_ddot": 0,
        "tle_line1": "1 30927U 99025AZR 25346.13820103  .00004165  00000+0  23255-2 0  9998",
        "tle_line2": "2 30927  99.1824  46.5978 0098379   7.6267 352.6371 14.08974509956755"
      },
      "geometry": {
        "type": "Point",
        "coordinates": [
          67.83851691745916,
          -65.67323084174872
        ]
      }
    },
    {
      "type": "Feature",
      "properties": {
        "norad_id": 30928,
        "name": "FENGYUN 1C DEB",
        "group": "fengyun-1c-debris",
        "lat": 35.47279422266912,
        "lon": 69.35517093881612,
        "alt_km": 833.910929590972,
        "timestamp": "2025-12-12T09:49:09.011199+00:00",
        "meta_object_name": "FENGYUN 1C DEB",
        "meta_object_id": "1999-025AZS",
        "meta_epoch": "2025-12-11T11:55:04.595808",
        "meta_mean_motion": 13.22237206,
        "meta_eccentricity": 0.04503412,
        "meta_inclination": 98.8831,
        "meta_ra_of_asc_node": 74.9747,
        "meta_arg_of_pericenter": 34.9014,
        "meta_mean_anomaly": 339.2911,
        "meta_ephemeris_type": 0,
        "meta_classification_type": "U",
        "meta_norad_cat_id": 30928,
        "meta_element_set_no": 999,
        "meta_rev_at_epoch": 90332,
        "meta_bstar": 0.0012480362,
        "meta_mean_motion_dot": 8.53e-06,
        "meta_mean_motion_ddot": 0,
        "tle_line1": "1 30928U 99025AZS 25345.49658097  .00000853  00000+0  12480-2 0  9996",
        "tle_line2": "2 30928  98.8831  74.9747 0450341  34.9014 339.2911 13.22237206903320"
      },
      "geometry": {
        "type": "Point",
        "coordinates": [
          69.35517093881612,
          35.47279422266912
        ]
      }
    },
    {
      "type": "Feature",
      "properties": {
        "norad_id": 30930,
        "name": "FENGYUN 1C DEB",
        "group": "fengyun-1c-debris",
        "lat": 38.086977472863865,
        "lon": 8.215387483738379,
        "alt_km": 735.0362056642343,
        "timestamp": "2025-12-12T09:49:09.011209+00:00",
        "meta_object_name": "FENGYUN 1C DEB",
        "meta_object_id": "1999-025AZU",
        "meta_epoch": "2025-12-12T01:25:02.953344",
        "meta_mean_motion": 14.37388119,
        "meta_eccentricity": 0.0109725,
        "meta_inclination": 98.2154,
        "meta_ra_of_asc_node": 14.3822,
        "meta_arg_of_pericenter": 108.3613,
        "meta_mean_anomaly": 281.0279,
        "meta_ephemeris_type": 0,
        "meta_classification_type": "U",
        "meta_norad_cat_id": 30930,
        "meta_element_set_no": 999,
        "meta_rev_at_epoch": 98322,
        "meta_bstar": 0.0005216,
        "meta_mean_motion_dot": 1.628e-05,
        "meta_mean_motion_ddot": 0,
        "tle_line1": "1 30930U 99025AZU 25346.05906196  .00001628  00000+0  52160-3 0  9999",
        "tle_line2": "2 30930  98.2154  14.3822 0109725 108.3613 281.0279 14.37388119983220"
      },
      "geometry": {
        "type": "Point",
        "coordinates": [
          8.215387483738379,
          38.086977472863865
        ]
      }
    }
  ]
}